<?xml version="1.0" encoding="UTF-8"?>
<ndm xmlns:xsi="http://www.w3.org/2001/XMLSchema-instance" xsi:noNamespaceSchemaLocation="https://sanaregistry.org/r/ndmxml_unqualified/ndmxml-2.0.0-master-2.0.xsd">
<omm id="CCSDS_OMM_VERS" version="2.0">
<header><CREATION_DATE/><ORIGINATOR/></header><body><segment><metadata><OBJECT_NAME>IRIDIUM 112</OBJECT_NAME><OBJECT_ID>2017-003J</OBJECT_ID><CENTER_NAME>EARTH</CENTER_NAME><REF_FRAME>TEME</REF_FRAME><TIME_SYSTEM>UTC</TIME_SYSTEM><MEAN_ELEMENT_THEORY>SGP4</MEAN_ELEMENT_THEORY></metadata><data><meanElements><EPOCH>2025-02-25T21:26:50.183232</EPOCH><MEAN_MOTION>14.34218293</MEAN_MOTION><ECCENTRICITY>.0001956</ECCENTRICITY><INCLINATION>86.3933</INCLINATION><RA_OF_ASC_NODE>287.3264</RA_OF_ASC_NODE><ARG_OF_PERICENTER>91.5584</ARG_OF_PERICENTER><MEAN_ANOMALY>268.5836</MEAN_ANOMALY></meanElements><tleParameters><EPHEMERIS_TYPE>0</EPHEMERIS_TYPE><CLASSIFICATION_TYPE>U</CLASSIFICATION_TYPE><NORAD_CAT_ID>41925</NORAD_CAT_ID><ELEMENT_SET_NO>999</ELEMENT_SET_NO><REV_AT_EPOCH>42500</REV_AT_EPOCH><BSTAR>.31555E-4</BSTAR><MEAN_MOTION_DOT>.108E-5</MEAN_MOTION_DOT><MEAN_MOTION_DDOT>0</MEAN_MOTION_DDOT></tleParameters></data></segment></body></omm>
<omm id="CCSDS_OMM_VERS" version="2.0">
<header><CREATION_DATE/><ORIGINATOR/></header><body><segment><metadata><OBJECT_NAME>IRIDIUM 111</OBJECT_NAME><OBJECT_ID>2017-003K</OBJECT_ID><CENTER_NAME>EARTH</CENTER_NAME><REF_FRAME>TEME</REF_FRAME><TIME_SYSTEM>UTC</TIME_SYSTEM><MEAN_ELEMENT_THEORY>SGP4</MEAN_ELEMENT_THEORY></metadata><data><meanElements><EPOCH>2025-02-25T21:08:34.049760</EPOCH><MEAN_MOTION>14.34220340</MEAN_MOTION><ECCENTRICITY>.0002147</ECCENTRICITY><INCLINATION>86.3936</INCLINATION><RA_OF_ASC_NODE>287.3917</RA_OF_ASC_NODE><ARG_OF_PERICENTER>83.8959</ARG_OF_PERICENTER><MEAN_ANOMALY>276.2481</MEAN_ANOMALY></meanElements><tleParameters><EPHEMERIS_TYPE>0</EPHEMERIS_TYPE><CLASSIFICATION_TYPE>U</CLASSIFICATION_TYPE><NORAD_CAT_ID>41926</NORAD_CAT_ID><ELEMENT_SET_NO>999</ELEMENT_SET_NO><REV_AT_EPOCH>42498</REV_AT_EPOCH><BSTAR>.15447E-3</BSTAR><MEAN_MOTION_DOT>.452E-5</MEAN_MOTION_DOT><MEAN_MOTION_DDOT>0</MEAN_MOTION_DDOT></tleParameters></data></segment></body></omm>
<omm id="CCSDS_OMM_VERS" version="2.0">
<header><CREATION_DATE/><ORIGINATOR/></header><body><segment><metadata><OBJECT_NAME>IRIDIUM 113</OBJECT_NAME><OBJECT_ID>2017-039A</OBJECT_ID><CENTER_NAME>EARTH</CENTER_NAME><REF_FRAME>TEME</REF_FRAME><TIME_SYSTEM>UTC</TIME_SYSTEM><MEAN_ELEMENT_THEORY>SGP4</MEAN_ELEMENT_THEORY></metadata><data><meanElements><EPOCH>2025-02-25T17:18:47.019456</EPOCH><MEAN_MOTION>14.34219936</MEAN_MOTION><ECCENTRICITY>.0002141</ECCENTRICITY><INCLINATION>86.4043</INCLINATION><RA_OF_ASC_NODE>161.3155</RA_OF_ASC_NODE><ARG_OF_PERICENTER>108.0744</ARG_OF_PERICENTER><MEAN_ANOMALY>252.0685</MEAN_ANOMALY></meanElements><tleParameters><EPHEMERIS_TYPE>0</EPHEMERIS_TYPE><CLASSIFICATION_TYPE>U</CLASSIFICATION_TYPE><NORAD_CAT_ID>42803</NORAD_CAT_ID><ELEMENT_SET_NO>999</ELEMENT_SET_NO><REV_AT_EPOCH>40289</REV_AT_EPOCH><BSTAR>.13892E-3</BSTAR><MEAN_MOTION_DOT>.409E-5</MEAN_MOTION_DOT><MEAN_MOTION_DDOT>0</MEAN_MOTION_DDOT></tleParameters></data></segment></body></omm>
<omm id="CCSDS_OMM_VERS" version="2.0">
<header><CREATION_DATE/><ORIGINATOR/></header><body><segment><metadata><OBJECT_NAME>IRIDIUM 123</OBJECT_NAME><OBJECT_ID>2017-039B</OBJECT_ID><CENTER_NAME>EARTH</CENTER_NAME><REF_FRAME>TEME</REF_FRAME><TIME_SYSTEM>UTC</TIME_SYSTEM><MEAN_ELEMENT_THEORY>SGP4</MEAN_ELEMENT_THEORY></metadata><data><meanElements><EPOCH>2025-02-25T21:39:26.826912</EPOCH><MEAN_MOTION>14.34219355</MEAN_MOTION><ECCENTRICITY>.0002305</ECCENTRICITY><INCLINATION>86.4025</INCLINATION><RA_OF_ASC_NODE>192.6555</RA_OF_ASC_NODE><ARG_OF_PERICENTER>90.7382</ARG_OF_PERICENTER><MEAN_ANOMALY>269.4078</MEAN_ANOMALY></meanElements><tleParameters><EPHEMERIS_TYPE>0</EPHEMERIS_TYPE><CLASSIFICATION_TYPE>U</CLASSIFICATION_TYPE><NORAD_CAT_ID>42804</NORAD_CAT_ID><ELEMENT_SET_NO>999</ELEMENT_SET_NO><REV_AT_EPOCH>40168</REV_AT_EPOCH><BSTAR>.13819E-3</BSTAR><MEAN_MOTION_DOT>.407E-5</MEAN_MOTION_DOT><MEAN_MOTION_DDOT>0</MEAN_MOTION_DDOT></tleParameters></data></segment></body></omm>
<omm id="CCSDS_OMM_VERS" version="2.0">
<header><CREATION_DATE/><ORIGINATOR/></header><body><segment><metadata><OBJECT_NAME>IRIDIUM 120</OBJECT_NAME><OBJECT_ID>2017-039C</OBJECT_ID><CENTER_NAME>EARTH</CENTER_NAME><REF_FRAME>TEME</REF_FRAME><TIME_SYSTEM>UTC</TIME_SYSTEM><MEAN_ELEMENT_THEORY>SGP4</MEAN_ELEMENT_THEORY></metadata><data><meanElements><EPOCH>2025-02-25T18:50:07.126080</EPOCH><MEAN_MOTION>14.34218760</MEAN_MOTION><ECCENTRICITY>.0002016</ECCENTRICITY><INCLINATION>86.4036</INCLINATION><RA_OF_ASC_NODE>161.1335</RA_OF_ASC_NODE><ARG_OF_PERICENTER>90.4450</ARG_OF_PERICENTER><MEAN_ANOMALY>269.6977</MEAN_ANOMALY></meanElements><tleParameters><EPHEMERIS_TYPE>0</EPHEMERIS_TYPE><CLASSIFICATION_TYPE>U</CLASSIFICATION_TYPE><NORAD_CAT_ID>42805</NORAD_CAT_ID><ELEMENT_SET_NO>999</ELEMENT_SET_NO><REV_AT_EPOCH>40289</REV_AT_EPOCH><BSTAR>.33335E-5</BSTAR><MEAN_MOTION_DOT>.29E-6</MEAN_MOTION_DOT><MEAN_MOTION_DDOT>0</MEAN_MOTION_DDOT></tleParameters></data></segment></body></omm>
<omm id="CCSDS_OMM_VERS" version="2.0">
<header><CREATION_DATE/><ORIGINATOR/></header><body><segment><metadata><OBJECT_NAME>IRIDIUM 115</OBJECT_NAME><OBJECT_ID>2017-039D</OBJECT_ID><CENTER_NAME>EARTH</CENTER_NAME><REF_FRAME>TEME</REF_FRAME><TIME_SYSTEM>UTC</TIME_SYSTEM><MEAN_ELEMENT_THEORY>SGP4</MEAN_ELEMENT_THEORY></metadata><data><meanElements><EPOCH>2025-02-25T19:34:38.163936</EPOCH><MEAN_MOTION>14.43278070</MEAN_MOTION><ECCENTRICITY>.000274</ECCENTRICITY><INCLINATION>86.4571</INCLINATION><RA_OF_ASC_NODE>161.1831</RA_OF_ASC_NODE><ARG_OF_PERICENTER>88.4156</ARG_OF_PERICENTER><MEAN_ANOMALY>271.7358</MEAN_ANOMALY></meanElements><tleParameters><EPHEMERIS_TYPE>0</EPHEMERIS_TYPE><CLASSIFICATION_TYPE>U</CLASSIFICATION_TYPE><NORAD_CAT_ID>42806</NORAD_CAT_ID><ELEMENT_SET_NO>999</ELEMENT_SET_NO><REV_AT_EPOCH>40555</REV_AT_EPOCH><BSTAR>.32405E-3</BSTAR><MEAN_MOTION_DOT>.111E-4</MEAN_MOTION_DOT><MEAN_MOTION_DDOT>0</MEAN_MOTION_DDOT></tleParameters></data></segment></body></omm>
<omm id="CCSDS_OMM_VERS" version="2.0">
<header><CREATION_DATE/><ORIGINATOR/></header><body><segment><metadata><OBJECT_NAME>IRIDIUM 118</OBJECT_NAME><OBJECT_ID>2017-039E</OBJECT_ID><CENTER_NAME>EARTH</CENTER_NAME><REF_FRAME>TEME</REF_FRAME><TIME_SYSTEM>UTC</TIME_SYSTEM><MEAN_ELEMENT_THEORY>SGP4</MEAN_ELEMENT_THEORY></metadata><data><meanElements><EPOCH>2025-02-25T20:44:38.927616</EPOCH><MEAN_MOTION>14.34217962</MEAN_MOTION><ECCENTRICITY>.0002025</ECCENTRICITY><INCLINATION>86.4028</INCLINATION><RA_OF_ASC_NODE>192.6716</RA_OF_ASC_NODE><ARG_OF_PERICENTER>98.4931</ARG_OF_PERICENTER><MEAN_ANOMALY>261.6495</MEAN_ANOMALY></meanElements><tleParameters><EPHEMERIS_TYPE>0</EPHEMERIS_TYPE><CLASSIFICATION_TYPE>U</CLASSIFICATION_TYPE><NORAD_CAT_ID>42807</NORAD_CAT_ID><ELEMENT_SET_NO>999</ELEMENT_SET_NO><REV_AT_EPOCH>40168</REV_AT_EPOCH><BSTAR>.62775E-4</BSTAR><MEAN_MOTION_DOT>.196E-5</MEAN_MOTION_DOT><MEAN_MOTION_DDOT>0</MEAN_MOTION_DDOT></tleParameters></data></segment></body></omm>
<omm id="CCSDS_OMM_VERS" version="2.0">
<header><CREATION_DATE/><ORIGINATOR/></header><body><segment><metadata><OBJECT_NAME>IRIDIUM 117</OBJECT_NAME><OBJECT_ID>2017-039F</OBJECT_ID><CENTER_NAME>EARTH</CENTER_NAME><REF_FRAME>TEME</REF_FRAME><TIME_SYSTEM>UTC</TIME_SYSTEM><MEAN_ELEMENT_THEORY>SGP4</MEAN_ELEMENT_THEORY></metadata><data><meanElements><EPOCH>2025-02-25T21:12:02.958048</EPOCH><MEAN_MOTION>14.34218199</MEAN_MOTION><ECCENTRICITY>.0002362</ECCENTRICITY><INCLINATION>86.4024</INCLINATION><RA_OF_ASC_NODE>192.6258</RA_OF_ASC_NODE><ARG_OF_PERICENTER>92.1483</ARG_OF_PERICENTER><MEAN_ANOMALY>267.9983</MEAN_ANOMALY></meanElements><tleParameters><EPHEMERIS_TYPE>0</EPHEMERIS_TYPE><CLASSIFICATION_TYPE>U</CLASSIFICATION_TYPE><NORAD_CAT_ID>42808</NORAD_CAT_ID><ELEMENT_SET_NO>999</ELEMENT_SET_NO><REV_AT_EPOCH>40171</REV_AT_EPOCH><BSTAR>.17948E-4</BSTAR><MEAN_MOTION_DOT>.7E-6</MEAN_MOTION_DOT><MEAN_MOTION_DDOT>0</MEAN_MOTION_DDOT></tleParameters></data></segment></body></omm>

</ndm>
