IRIDIUM 112             
1 41925U 17003J   25056.89363638  .00000108  00000+0  31555-4 0  9997
2 41925  86.3933 287.3264 0001956  91.5584 268.5836 14.34218293425006
IRIDIUM 111             
1 41926U 17003K   25056.88094965  .00000452  00000+0  15447-3 0  9994
2 41926  86.3936 287.3917 0002147  83.8959 276.2481 14.34220340424982
IRIDIUM 113             
1 42803U 17039A   25056.72137754  .00000409  00000+0  13892-3 0  9999
2 42803  86.4043 161.3155 0002141 108.0744 252.0685 14.34219936402891
IRIDIUM 123             
1 42804U 17039B   25056.90239383  .00000407  00000+0  13819-3 0  9998
2 42804  86.4025 192.6555 0002305  90.7382 269.4078 14.34219355401689
IRIDIUM 120             
1 42805U 17039C   25056.78480470  .00000029  00000+0  33335-5 0  9997
2 42805  86.4036 161.1335 0002016  90.4450 269.6977 14.34218760402894
IRIDIUM 115             
1 42806U 17039D   25056.81571949  .00001110  00000+0  32405-3 0  9991
2 42806  86.4571 161.1831 0002740  88.4156 271.7358 14.43278070405557
IRIDIUM 118             
1 42807U 17039E   25056.86433944  .00000196  00000+0  62775-4 0  9996
2 42807  86.4028 192.6716 0002025  98.4931 261.6495 14.34217962401687
IRIDIUM 117             
1 42808U 17039F   25056.88336757  .00000070  00000+0  17948-4 0  9996
2 42808  86.4024 192.6258 0002362  92.1483 267.9983 14.34218199401710
